[{"OBJECT_NAME":"STARLINK-32619","OBJECT_ID":"2024-217T","EPOCH":"2026-03-09T16:01:55.228512","MEAN_MOTION":15.30194524,"ECCENTRICITY":0.00012083,"INCLINATION":53.1609,"RA_OF_ASC_NODE":194.3077,"ARG_OF_PERICENTER":70.3644,"MEAN_ANOMALY":289.7487,"EPHEMERIS_TYPE":0,"CLASSIFICATION_TYPE":"U","NORAD_CAT_ID":62074,"ELEMENT_SET_NO":999,"REV_AT_EPOCH":7341,"BSTAR":0.001152285,"MEAN_MOTION_DOT":0.00033918,"MEAN_MOTION_DDOT":0},{"OBJECT_NAME":"SCS-01 M","OBJECT_ID":"2025-100M","EPOCH":"2026-03-09T23:50:15.541152","MEAN_MOTION":15.31880861,"ECCENTRICITY":0.00078021,"INCLINATION":97.3725,"RA_OF_ASC_NODE":145.6908,"ARG_OF_PERICENTER":292.3826,"MEAN_ANOMALY":67.6588,"EPHEMERIS_TYPE":0,"CLASSIFICATION_TYPE":"U","NORAD_CAT_ID":63993,"ELEMENT_SET_NO":999,"REV_AT_EPOCH":4565,"BSTAR":0.0012010051,"MEAN_MOTION_DOT":0.00037061,"MEAN_MOTION_DDOT":0}]
